GSAT0101 (GALILEO-PFM)  
1 37846U 11060A   25172.09861413 -.00000077  00000+0  00000+0 0  9998
2 37846  57.0941 351.5504 0003031  50.9579 309.0857  1.70475645 84969
GSAT0102 (GALILEO-FM2)  
1 37847U 11060B   25175.54898421 -.00000093  00000+0  00000+0 0  9999
2 37847  57.0943 351.4574 0002887  11.2815 351.6831  1.70475813 85030
GSAT0103 (GALILEO-FM3)  
1 38857U 12055A   25174.48460065 -.00000017  00000+0  00000+0 0  9993
2 38857  55.5927 111.3992 0004916 293.8691  66.0322  1.70473455 78897
GSAT0201 (GALILEO 5)    
1 40128U 14050A   25176.06857665 -.00000070  00000+0  00000+0 0  9995
2 40128  49.2640 288.0061 1633287 165.6720 199.6225  1.85519706 71693
GSAT0202 (GALILEO 6)    
1 40129U 14050B   25177.40343403 -.00000069  00000+0  00000+0 0  9993
2 40129  49.2783 287.0338 1633530 166.4970 198.5065  1.85520289 73886
GSAT0203 (GALILEO 7)    
1 40544U 15017A   25177.15652150 -.00000098  00000+0  00000+0 0  9994
2 40544  56.8876 351.2968 0001979 268.6418  91.3351  1.70475990 63131
GSAT0204 (GALILEO 8)    
1 40545U 15017B   25177.41149838 -.00000099  00000+0  00000+0 0  9999
2 40545  56.8937 351.3069 0002149 230.5804 129.3996  1.70475605 26184
GSAT0205 (GALILEO 9)    
1 40889U 15045A   25176.00649077  .00000045  00000+0  00000+0 0  9995
2 40889  55.0636 231.4710 0002602   9.3265 350.7773  1.70473862 60926
GSAT0206 (GALILEO 10)   
1 40890U 15045B   25172.12103116  .00000046  00000+0  00000+0 0  9996
2 40890  55.0635 231.5735 0001523 318.6804  41.3943  1.70473693 60880
GSAT0209 (GALILEO 12)   
1 41174U 15079A   25174.04928287 -.00000014  00000+0  00000+0 0  9992
2 41174  55.6123 111.1238 0005079 332.4683  27.4586  1.70473641 58657
GSAT0208 (GALILEO 11)   
1 41175U 15079B   25175.44246110 -.00000021  00000+0  00000+0 0  9994
2 41175  55.6113 111.0828 0004570 333.2091  26.7205  1.70473714 59098
GSAT0211 (GALILEO 14)   
1 41549U 16030A   25176.73944152  .00000041  00000+0  00000+0 0  9992
2 41549  55.2114 231.4976 0002945 307.1716  52.8996  1.70473800 56594
GSAT0210 (GALILEO 13)   
1 41550U 16030B   25176.41064340  .00000043  00000+0  00000+0 0  9993
2 41550  55.2110 231.5048 0004028 230.9623 129.1004  1.70474081 56586
GSAT0207 (GALILEO 15)   
1 41859U 16069A   25175.51584569 -.00000022  00000+0  00000+0 0  9995
2 41859  55.2809 110.9943 0005114 319.1760  40.7391  1.70473673 53306
GSAT0212 (GALILEO 16)   
1 41860U 16069B   25173.02336967 -.00000006  00000+0  00000+0 0  9990
2 41860  55.2772 111.0591 0004215 345.6139  14.3316  1.70473846 53512
GSAT0213 (GALILEO 17)   
1 41861U 16069C   25174.56446015 -.00000018  00000+0  00000+0 0  9990
2 41861  55.2801 111.0236 0004859 301.9465  57.9592  1.70474265 53530
GSAT0214 (GALILEO 18)   
1 41862U 16069D   25176.46989492 -.00000023  00000+0  00000+0 0  9999
2 41862  55.2799 110.9640 0004374 306.2310  53.6850  1.70473963 53560
GSAT0215 (GALILEO 19)   
1 43055U 17079A   25176.96010199  .00000039  00000+0  00000+0 0  9997
2 43055  55.1893 231.3080 0003606 257.1001 102.9571  1.70474465 46911
GSAT0216 (GALILEO 20)   
1 43056U 17079B   25174.90519177  .00000050  00000+0  00000+0 0  9993
2 43056  55.1900 231.3646 0004036 267.0941  92.9578  1.70474500 46892
GSAT0217 (GALILEO 21)   
1 43057U 17079C   25177.47213462  .00000036  00000+0  00000+0 0  9991
2 43057  55.1868 231.2923 0005028 277.5369  82.5018  1.70474299 46928
GSAT0218 (GALILEO 22)   
1 43058U 17079D   25175.93246764  .00000046  00000+0  00000+0 0  9993
2 43058  55.1878 231.3323 0004857 265.7492  94.2945  1.70474544 46922
GSAT0221 (GALILEO 25)   
1 43564U 18060A   25177.00800702 -.00000097  00000+0  00000+0 0  9991
2 43564  57.2679 351.3954 0002444 296.0134  63.9614  1.70475906 43093
GSAT0222 (GALILEO 26)   
1 43565U 18060B   25174.88076964 -.00000089  00000+0  00000+0 0  9991
2 43565  57.2699 351.4552 0001950 237.5769 122.4116  1.70475546 43106
GSAT0219 (GALILEO 23)   
1 43566U 18060C   25176.27527796 -.00000095  00000+0  00000+0 0  9998
2 43566  57.2711 351.4196 0001811 316.6395  43.3485  1.70475851 43105
GSAT0220 (GALILEO 24)   
1 43567U 18060D   25177.08269881 -.00000097  00000+0  00000+0 0  9999
2 43567  57.2707 351.3977 0001902 298.1347  61.8459  1.70475657 43109
GSAT0223 (GALILEO 27)   
1 49809U 21116A   25176.64826262 -.00000096  00000+0  00000+0 0  9992
2 49809  57.2605 351.3012 0001927 180.1104   3.8916  1.70475887 22105
GSAT0224 (GALILEO 28)   
1 49810U 21116B   25177.04771848 -.00000097  00000+0  00000+0 0  9999
2 49810  57.2606 351.2889 0001152 148.2192  33.4956  1.70475865 22133
GSAT0225 (GALILEO 29)   
1 59598U 24079A   25176.47012491 -.00000023  00000+0  00000+0 0  9991
2 59598  54.8990 111.0592 0001879 269.5438 269.8716  1.70474086  7232
GSAT0227 (GALILEO 30)   
1 59600U 24079C   25175.77450787 -.00000023  00000+0  00000+0 0  9991
2 59600  54.8941 111.0786 0001384  53.3635 306.6028  1.70474014  7277
GSAT0232 (GALILEO 32)   
1 61182U 24167A   25176.72925387  .00000042  00000+0  00000+0 0  9996
2 61182  55.2991 231.0930 0005090 223.7639 197.1970  1.70474112  4808
GSAT0226 (GALILEO 31)   
1 61183U 24167B   25176.52729439  .00000043  00000+0  00000+0 0  9996
2 61183  55.2979 231.1042 0002882 215.7078 193.8998  1.70474188  4776
